NORAD_CAT_ID,OBJECT_NAME,OBJECT_TYPE,EPOCH,MEAN_MOTION,ECCENTRICITY,INCLINATION,RA_OF_ASC_NODE,ARG_OF_PERICENTER,MEAN_ANOMALY,BSTAR,MEAN_MOTION_DOT,MEAN_MOTION_DDOT,TLE_LINE0,TLE_LINE1,TLE_LINE2,SEMIMAJOR_AXIS,PERIOD,APOGEE,PERIGEE,DECAYED
56786.0,STARLINK-6341,PAYLOAD,2023-11-25 23:33:40,15.50152974,0.0003508,69.9977,271.7893,278.4175,81.6613,-0.0022351,-0.00124596,0.0,0 STARLINK-6341,1 56786U 23078V   23329.98172394 -.00124596  00000-0 -22351-2 0  9998,2 56786  69.9977 271.7893 0003508 278.4175  81.6613 15.50152974 28338,6794.416,92.894,418.665,413.898,0.0
56786.0,STARLINK-6341,PAYLOAD,2023-11-26 14:00:01,15.48047879,0.0003343,70.0008,270.1481,264.6428,211.3558,-0.018821,-0.00910241,0.0,0 STARLINK-6341,1 56786U 23078V   23330.58334491 -.00910241  00000-0 -18821-1 0  9990,2 56786  70.0008 270.1481 0003343 264.6428 211.3558 15.48047879 28421,6800.574,93.02,424.713,420.166,0.0
56786.0,STARLINK-6341,PAYLOAD,2023-11-26 22:00:00,15.47427418,0.0003333,70.0012,269.2415,260.8825,271.8209,-0.019923,-0.00940277,0.0,0 STARLINK-6341,1 56786U 23078V   23330.91667824 -.00940277  00000-0 -19923-1 0  9992,2 56786  70.0012 269.2415 0003333 260.8825 271.8209 15.47427418  5980,6802.392,93.058,426.524,421.99,0.0
56786.0,STARLINK-6341,PAYLOAD,2023-11-27 14:00:01,15.46089348,0.0003321,70.0011,267.4313,261.8175,22.0018,-0.020131,-0.00909607,0.0,0 STARLINK-6341,1 56786U 23078V   23331.58334491 -.00909607  00000-0 -20131-1 0  9992,2 56786  70.0011 267.4313 0003321 261.8175  22.0018 15.46089348 28582,6806.316,93.138,430.441,425.921,0.0
56786.0,STARLINK-6341,PAYLOAD,2023-11-27 22:00:00,15.45477196,0.0003482,70.0012,266.5277,263.1279,75.0452,-0.021567,-0.00950593,0.0,0 STARLINK-6341,1 56786U 23078V   23331.91667824 -.00950593  00000-0 -21567-1 0  9992,2 56786  70.0012 266.5277 0003482 263.1279  75.0452 15.45477196  6059,6808.113,93.175,432.349,427.608,0.0
56786.0,STARLINK-6341,PAYLOAD,2023-11-28 14:00:01,15.44123458,0.0003381,70.001,264.7226,267.1484,177.4515,-0.021008,-0.00889118,0.0,0 STARLINK-6341,1 56786U 23078V   23332.58334491 -.00889118  00000-0 -21008-1 0  9991,2 56786  70.0010 264.7226 0003381 267.1484 177.4515 15.44123458 28735,6812.092,93.257,436.26,431.654,0.0
56786.0,STARLINK-6341,PAYLOAD,2023-11-28 20:00:01,15.43666409,0.0003428,70.0012,264.0468,264.2595,129.417,-0.022114,-0.00918962,0.0,0 STARLINK-6341,1 56786U 23078V   23332.83334491 -.00918962  00000-0 -22114-1 0  9998,2 56786  70.0012 264.0468 0003428 264.2595 129.4170 15.43666409  5973,6813.436,93.284,437.637,432.966,0.0
56786.0,STARLINK-6341,PAYLOAD,2023-11-29 06:00:00,15.4282234,0.0003282,70.001,262.9211,269.6006,278.2719,-0.021775,-0.0088238,0.0,0 STARLINK-6341,1 56786U 23078V   23333.25001157 -.00882380  00000-0 -21775-1 0  9991,2 56786  70.0010 262.9211 0003282 269.6006 278.2719 15.42822340 28848,6815.921,93.335,440.023,435.549,0.0
56786.0,STARLINK-6341,PAYLOAD,2023-11-29 14:00:01,15.42171164,0.000329,70.0008,262.0215,262.5395,335.7981,-0.022631,-0.00896054,0.0,0 STARLINK-6341,1 56786U 23078V   23333.58334491 -.00896054  00000-0 -22631-1 0  9992,2 56786  70.0008 262.0215 0003290 262.5395 335.7981 15.42171164  5983,6817.84,93.375,441.948,437.462,0.0
56786.0,STARLINK-6341,PAYLOAD,2023-11-29 22:00:00,15.41557626,0.0003414,70.001,261.123,261.0727,26.9294,-0.024403,-0.00942477,0.0,0 STARLINK-6341,1 56786U 23078V   23333.91667824 -.00942477  00000-0 -24403-1 0  9998,2 56786  70.0010 261.1230 0003414 261.0727  26.9294 15.41557626 28941,6819.649,93.412,443.842,439.185,0.0
56786.0,STARLINK-6341,PAYLOAD,2023-12-01 06:00:00,15.38913718,0.000331,70.0004,257.5376,268.8085,210.1119,-0.025,-0.00888986,0.0,0 STARLINK-6341,1 56786U 23078V   23335.25001157 -.00888986  00000-0 -25000-1 0  9996,2 56786  70.0004 257.5376 0003310 268.8085 210.1119 15.38913718 29141,6827.457,93.572,451.582,447.062,0.0
56786.0,STARLINK-6341,PAYLOAD,2023-12-01 22:00:00,15.37644633,0.0003282,70.0004,255.7506,260.391,309.2749,-0.027887,-0.00946178,0.0,0 STARLINK-6341,1 56786U 23078V   23335.91667824 -.00946178  00000-0 -27887-1 0  9991,2 56786  70.0004 255.7506 0003282 260.3910 309.2749 15.37644633 29255,6831.213,93.65,455.32,450.836,0.0
56786.0,STARLINK-6341,PAYLOAD,2023-12-02 14:00:01,15.36291535,0.0003389,70.0001,253.9669,259.9628,37.3507,-0.026879,-0.00878491,0.0,0 STARLINK-6341,1 56786U 23078V   23336.58334491 -.00878491  00000-0 -26879-1 0  9998,2 56786  70.0001 253.9669 0003389 259.9628  37.3507 15.36291535  5938,6835.224,93.732,459.405,454.773,0.0
56786.0,STARLINK-6341,PAYLOAD,2023-12-02 22:00:00,15.35690203,0.0003438,70.0004,253.0765,261.191,78.7445,-0.029856,-0.00950531,0.0,0 STARLINK-6341,1 56786U 23078V   23336.91667824 -.00950531  00000-0 -29856-1 0  9998,2 56786  70.0004 253.0765 0003438 261.1910  78.7445 15.35690203 29405,6837.008,93.769,461.224,456.523,0.0
56786.0,STARLINK-6341,PAYLOAD,2023-12-03 14:00:01,15.34330148,0.000339,69.9999,251.2978,265.7773,157.1131,-0.028322,-0.00869932,0.0,0 STARLINK-6341,1 56786U 23078V   23337.58334491 -.00869932  00000-0 -28322-1 0  9994,2 56786  69.9999 251.2978 0003390 265.7773 157.1131 15.34330148  5940,6841.048,93.852,465.232,460.594,0.0
56786.0,STARLINK-6341,PAYLOAD,2023-12-03 22:00:00,15.33734915,0.0003316,70.0002,250.41,267.1954,195.9696,-0.031927,-0.00954484,0.0,0 STARLINK-6341,1 56786U 23078V   23337.91667824 -.00954484  00000-0 -31927-1 0  9992,2 56786  70.0002 250.4100 0003316 267.1954 195.9696 15.33734915 29559,6842.818,93.888,466.952,462.414,0.0
56786.0,STARLINK-6341,PAYLOAD,2023-12-04 14:00:01,15.32369986,0.0003229,69.9998,248.6366,264.2881,277.1398,-0.029899,-0.00863585,0.0,0 STARLINK-6341,1 56786U 23078V   23338.58334491 -.00863585  00000-0 -29899-1 0  9993,2 56786  69.9998 248.6366 0003229 264.2881 277.1398 15.32369986 29668,6846.881,93.972,470.956,466.535,0.0
56786.0,STARLINK-6341,PAYLOAD,2023-12-04 16:00:01,15.3221153,0.0003326,69.9998,248.4153,261.3299,19.7167,-0.029962,-0.00861312,0.0,0 STARLINK-6341,1 56786U 23078V   23338.66668981 -.00861312  00000-0 -29962-1 0  9993,2 56786  69.9998 248.4153 0003326 261.3299  19.7167 15.32211530  6052,6847.353,93.982,471.495,466.94,0.0
56786.0,STARLINK-6341,PAYLOAD,2023-12-04 22:00:00,15.3177336,0.0003266,70.0002,247.7513,264.1772,315.1794,-0.033706,-0.00947764,0.0,0 STARLINK-6341,1 56786U 23078V   23338.91667824 -.00947764  00000-0 -33706-1 0  9993,2 56786  70.0002 247.7513 0003266 264.1772 315.1794 15.31773360  5773,6848.658,94.009,472.76,468.287,0.0
56786.0,STARLINK-6341,PAYLOAD,2023-12-05 06:00:00,15.31097337,0.0003246,69.9998,246.8668,267.6122,348.9172,-0.032843,-0.00907664,0.0,0 STARLINK-6341,1 56786U 23078V   23339.25001157 -.00907664  00000-0 -32843-1 0  9998,2 56786  69.9998 246.8668 0003246 267.6122 348.9172 15.31097337 29762,6850.674,94.05,474.763,470.315,0.0
56786.0,STARLINK-6341,PAYLOAD,2023-12-05 14:00:01,15.30410722,0.0003288,70.0,245.9832,261.851,31.0729,-0.031619,-0.00859343,0.0,0 STARLINK-6341,1 56786U 23078V   23339.58334491 -.00859343  00000-0 -31619-1 0  9994,2 56786  70.0000 245.9832 0003288 261.8510  31.0729 15.30410722  5886,6852.723,94.092,476.841,472.335,0.0
56786.0,STARLINK-6341,PAYLOAD,2023-12-05 22:00:00,15.29818046,0.000337,70.0002,245.1006,264.3951,64.1095,-0.035936,-0.00962691,0.0,0 STARLINK-6341,1 56786U 23078V   23339.91667824 -.00962691  00000-0 -35936-1 0  9997,2 56786  70.0002 245.1006 0003370 264.3951  64.1095 15.29818046  5930,6854.493,94.129,478.668,474.048,0.0
56786.0,STARLINK-6341,PAYLOAD,2023-12-06 06:00:00,15.29145933,0.0003306,69.9999,244.2187,269.247,94.0814,-0.035217,-0.00915394,0.0,0 STARLINK-6341,1 56786U 23078V   23340.25001157 -.00915394  00000-0 -35217-1 0  9997,2 56786  69.9999 244.2187 0003306 269.2470  94.0814 15.29145933 29914,6856.501,94.17,480.633,476.099,0.0
56786.0,STARLINK-6341,PAYLOAD,2023-12-06 14:00:01,15.28450844,0.000329,70.0,243.3379,263.7489,133.6304,-0.033316,-0.00852798,0.0,0 STARLINK-6341,1 56786U 23078V   23340.58334491 -.00852798  00000-0 -33316-1 0  9999,2 56786  70.0000 243.3379 0003290 263.7489 133.6304 15.28450844  6046,6858.58,94.213,482.701,478.188,0.0
56786.0,STARLINK-6341,PAYLOAD,2023-12-06 22:00:00,15.2786063,0.0003304,70.0003,242.458,267.0217,163.5923,-0.038245,-0.00964489,0.0,0 STARLINK-6341,1 56786U 23078V   23340.91667824 -.00964489  00000-0 -38245-1 0  9992,2 56786  70.0003 242.4580 0003304 267.0217 163.5923 15.27860630  5972,6860.346,94.249,484.478,479.944,0.0
56786.0,STARLINK-6341,PAYLOAD,2023-12-07 06:00:02,15.27192099,0.0003166,70.0,241.5787,271.3441,191.8086,-0.037624,-0.00932105,0.0,0 STARLINK-6341,1 56786U 23078V   23341.25002315 -.00932105  00000-0 -37624-1 0  9998,2 56786  70.0000 241.5787 0003166 271.3441 191.8086 15.27192099 30060,6862.348,94.291,486.385,482.04,0.0
56786.0,STARLINK-6341,PAYLOAD,2023-12-07 14:00:01,15.26493842,0.0003158,70.0002,240.7007,264.4836,230.3726,-0.035192,-0.0084887,0.0,0 STARLINK-6341,1 56786U 23078V   23341.58335648 -.00848870  00000-0 -35192-1 0  9995,2 56786  70.0002 240.7007 0003158 264.4836 230.3726 15.26493842  5881,6864.44,94.334,488.473,484.138,0.0
56786.0,STARLINK-6341,PAYLOAD,2023-12-08 14:00:01,15.24537558,0.0003178,70.0003,238.0714,262.4575,322.7083,-0.037239,-0.00846926,0.0,0 STARLINK-6341,1 56786U 23078V   23342.58334491 -.00846926  00000-0 -37239-1 0  9995,2 56786  70.0003 238.0714 0003178 262.4575 322.7083 15.24537558 30271,6870.311,94.455,494.36,489.993,0.0
56786.0,STARLINK-6341,PAYLOAD,2023-12-08 22:00:00,15.23934336,0.0003242,70.0005,237.1967,265.7551,347.9594,-0.042153,-0.00945521,0.0,0 STARLINK-6341,1 56786U 23078V   23342.91667824 -.00945521  00000-0 -42153-1 0  9993,2 56786  70.0005 237.1967 0003242 265.7551 347.9594 15.23934336  5974,6872.124,94.492,496.217,491.761,0.0
56786.0,STARLINK-6341,PAYLOAD,2023-12-09 06:00:00,15.23286312,0.0003261,70.0002,236.3228,268.5503,12.9383,-0.043137,-0.00948817,0.0,0 STARLINK-6341,1 56786U 23078V   23343.25001157 -.00948817  00000-0 -43137-1 0  9996,2 56786  70.0002 236.3228 0003261 268.5503  12.9383 15.23286312 30372,6874.073,94.532,498.18,493.696,0.0
